OBJECT_NAME,OBJECT_ID,EPOCH,MEAN_MOTION,ECCENTRICITY,INCLINATION,RA_OF_ASC_NODE,ARG_OF_PERICENTER,MEAN_ANOMALY,EPHEMERIS_TYPE,CLASSIFICATION_TYPE,NORAD_CAT_ID,ELEMENT_SET_NO,REV_AT_EPOCH,BSTAR,MEAN_MOTION_DOT,MEAN_MOTION_DDOT
CUTE-1 (CO-55),2003-031E,2026-06-09T17:33:10.421568,14.24331147,.00090363,98.6735,169.3839,200.1395,159.9429,0,U,27844,999,19061,.13413721E-3,.266E-5,0
CUBESAT XI-IV (CO-57),2003-031J,2026-06-09T00:19:05.278656,14.23616414,.00085614,98.6766,168.3941,222.5153,137.5363,0,U,27848,999,19021,.11651716E-3,.222E-5,0
CUBESAT XI-V,2005-043F,2026-06-09T09:14:13.585344,14.72610450,.00131651,98.2976,315.8433,226.6554,133.3557,0,U,28895,999,10060,.21228388E-3,.13E-4,0
CUTE-1.7+APD II (CO-65),2008-021C,2026-06-09T19:46:39.055296,15.09383390,.00103361,97.8271,142.0896,60.4775,299.7482,0,U,32785,999,98408,.33311857E-3,.5261E-4,0
CANX-2,2008-021H,2026-06-09T12:17:46.631328,15.05558112,.00119018,97.8624,140.1415,73.4077,286.8455,0,U,32790,999,98365,.20758638E-3,.2929E-4,0
SEEDS II (CO-66),2008-021J,2026-06-09T05:39:09.737568,15.32477826,.0002294,97.7519,157.7552,29.0945,331.0423,0,U,32791,999,98607,.51422E-3,.1606E-3,0
SWISSCUBE,2009-051B,2026-06-09T17:04:01.608672,14.62467613,.00055621,98.4042,68.4691,230.1201,129.9511,0,U,35932,999,88806,.19187016E-3,.922E-5,0
BEESAT-1,2009-051C,2026-06-09T12:16:18.064416,14.61708260,.00039183,98.3972,67.9173,247.5852,112.4933,0,U,35933,999,88806,.16607004E-3,.778E-5,0
ITUPSAT1,2009-051E,2026-06-09T16:49:29.216640,14.60429700,.00061272,98.4055,67.3098,262.2059,97.8445,0,U,35935,999,88764,.15593604E-3,.707E-5,0
TISAT 1,2010-035E,2026-06-08T19:40:13.696608,15.31390446,.00001854,98.0700,105.6282,170.3248,189.7995,0,U,36799,999,86642,.66607275E-3,.20138E-3,0
AEROCUBE 4.5A,2012-048K,2026-06-09T10:34:57.292032,15.90197538,.00195965,64.6259,55.1328,217.0625,142.9182,0,U,38767,999,37142,.10193801E-2,.314306E-2,.43379765E-4
STRAND-1,2013-009E,2026-06-09T17:53:49.470144,14.37158906,.00074547,98.3921,341.1634,250.7154,109.3227,0,U,39090,999,69599,.10516554E-3,.27E-5,0
BRITE-AUSTRIA,2013-009F,2026-06-09T18:07:44.518368,14.36539135,.00089679,98.3993,340.3753,261.6258,98.3912,0,U,39091,999,69598,.67785379E-4,.156E-5,0
NEE-01 PEGASO,2013-018B,2026-06-09T08:39:16.297920,14.93624676,.00125229,98.1215,304.2532,183.6303,176.4827,0,U,39151,999,70953,.24707469E-3,.2551E-4,0
POPACS 2,2013-055E,2026-06-09T09:24:36.671904,14.91020614,.04171298,80.9908,153.1144,218.8379,138.2180,0,U,39269,999,66205,.17333163E-3,.10185E-3,0
POPACS 3,2013-055F,2026-06-09T11:48:08.837280,14.55979043,.05528194,81.0013,237.5281,93.4066,273.0497,0,U,39270,999,63743,.24503039E-3,.10418E-3,0
ZACUBE-1 (TSHEPISOSAT),2013-066B,2026-06-09T11:24:15.748128,15.01140367,.00400693,97.8090,122.7702,274.7996,84.8653,0,U,39417,999,67957,.23849308E-3,.3043E-4,0
WNISAT-1,2013-066H,2026-06-09T15:53:35.367360,14.58050476,.01617058,97.7193,310.3529,255.4814,102.8401,0,U,39423,999,66563,.13373533E-3,.685E-5,0
TRITON-1,2013-066M,2026-06-10T00:03:08.434944,14.81682119,.00883154,97.8246,70.9725,257.7469,101.3843,0,U,39427,999,67302,.225637E-3,.1842E-4,0
GOMX-1,2013-066Q,2026-06-09T21:35:51.086112,14.69433394,.01301451,97.6494,1.8227,100.6723,260.9170,0,U,39430,999,66884,.30354029E-3,.1996E-4,0
CUBEBUG-2 (LO-74),2013-066AA,2026-06-09T19:53:06.844416,14.93703888,.00591101,97.8901,109.7759,52.8866,307.7734,0,U,39440,999,67589,.32652584E-3,.3514E-4,0
NEE-02 KRYSAOR,2013-066AB,2026-06-09T19:19:33.750336,14.86587179,.0067737,97.8886,100.0728,93.8296,267.0667,0,U,39441,999,67510,.20498756E-3,.1836E-4,0
FUNCUBE-1 (AO-73),2013-066AE,2026-06-09T15:09:57.850848,15.09398599,.00348855,97.8267,131.9204,227.2487,132.5804,0,U,39444,999,67852,.32071403E-3,.5129E-4,0
UWE-3,2013-066AG,2026-06-09T03:04:03.741312,14.96959057,.00487694,97.8686,116.1479,348.2293,11.7784,0,U,39446,999,67637,.30256314E-3,.3499E-4,0
BRITE-CA1 (TORONTO),2014-033L,2026-06-09T15:09:49.360320,14.72666383,.00774112,97.9730,289.6994,301.6359,57.7312,0,U,40020,999,64110,.10504619E-3,.647E-5,0
DUCHIFAT-1,2014-033M,2026-06-09T15:55:00.117120,15.63096310,.00042507,98.0468,218.7756,128.7819,231.3818,0,U,40021,999,65457,.97274361E-3,.89241E-3,0
NANOSATC-BR1,2014-033Q,2026-06-09T00:53:52.251648,15.31195370,.00035439,98.0734,191.7047,185.9906,174.1292,0,U,40024,999,65273,.49565966E-3,.14864E-3,0
QB50P1,2014-033R,2026-06-09T18:26:22.685568,15.18148380,.00072263,98.0973,171.3946,244.9283,115.1199,0,U,40025,999,65190,.40438593E-3,.8189E-4,0
QB50P2,2014-033Y,2026-06-09T16:52:42.935808,15.15063299,.00072298,98.0753,157.1181,187.2698,172.8429,0,U,40032,999,65153,.31853502E-3,.5888E-4,0
PERSEUS-M2,2014-033AD,2026-06-09T21:41:39.577920,14.95491289,.00113203,97.9966,111.2969,331.9697,28.0912,0,U,40037,999,64969,.89693628E-4,.933E-5,0
